NORAD_CAT_ID,OBJECT_NAME,OBJECT_TYPE,EPOCH,MEAN_MOTION,ECCENTRICITY,INCLINATION,RA_OF_ASC_NODE,ARG_OF_PERICENTER,MEAN_ANOMALY,BSTAR,MEAN_MOTION_DOT,MEAN_MOTION_DDOT,TLE_LINE0,TLE_LINE1,TLE_LINE2,SEMIMAJOR_AXIS,PERIOD,APOGEE,PERIGEE,DECAYED
50822.0,STARLINK-3343,PAYLOAD,2023-01-25 13:06:54,15.0883958,0.0001436,53.2119,242.9323,82.5513,277.5642,0.00026253,3.893e-05,0.0,0 STARLINK-3343,1 50822U 22001V   23025.54645898  .00003893  00000-0  26253-3 0  9997,2 50822  53.2119 242.9323 0001436  82.5513 277.5642 15.08839580 58433,6917.882,95.438,540.74,538.753,0.0
50822.0,STARLINK-3343,PAYLOAD,2023-01-25 19:28:26,15.08842821,0.0001412,53.2138,241.7451,85.0643,275.051,-1.115e-05,-4.65e-06,0.0,0 STARLINK-3343,1 50822U 22001V   23025.81141848 -.00000465  00000-0 -11150-4 0  9998,2 50822  53.2138 241.7451 0001412  85.0643 275.0510 15.08842821 59721,6917.871999999999,95.437,540.714,538.76,0.0
50822.0,STARLINK-3343,PAYLOAD,2023-01-26 00:14:35,15.08848788,0.0001252,53.2132,240.852,79.9473,280.166,-4.5058e-05,-1.005e-05,0.0,0 STARLINK-3343,1 50822U 22001V   23026.01013572 -.00001005  00000-0 -45058-4 0  9998,2 50822  53.2132 240.8520 0001252  79.9473 280.1660 15.08848788 58503,6917.854,95.437,540.585,538.852,0.0
50822.0,STARLINK-3343,PAYLOAD,2023-01-26 20:54:36,15.08846406,0.0001286999999999,53.2133,236.986,77.9807,282.1329,0.00014092,1.956e-05,0.0,0 STARLINK-3343,1 50822U 22001V   23026.87125551  .00001956  00000-0  14092-3 0  9999,2 50822  53.2133 236.9860 0001287  77.9807 282.1329 15.08846406 59885,6917.861,95.437,540.616,538.835,0.0
50822.0,STARLINK-3343,PAYLOAD,2023-01-27 00:05:22,15.08846909,0.0001291,53.2133,236.3913,77.8076,282.3061,0.00014301,1.989e-05,0.0,0 STARLINK-3343,1 50822U 22001V   23027.00373489  .00001989  00000-0  14301-3 0  9999,2 50822  53.2133 236.3913 0001291  77.8076 282.3061 15.08846909 58657,6917.859,95.437,540.617,538.831,0.0
50822.0,STARLINK-3343,PAYLOAD,2023-01-27 19:10:00,15.08835162,0.0001058,53.2134,232.8218,55.7698,304.3394,-2.7919e-05,-7.32e-06,0.0,0 STARLINK-3343,1 50822U 22001V   23027.79862044 -.00000732  00000-0 -27919-4 0  9992,2 50822  53.2134 232.8218 0001058  55.7698 304.3394 15.08835162 60020,6917.895,95.438,540.492,539.028,0.0
50822.0,STARLINK-3343,PAYLOAD,2023-01-27 20:45:24,15.08834182,0.0001004,53.2141,232.5247,57.8504,302.2586,4.9785e-05,5.05e-06,0.0,0 STARLINK-3343,1 50822U 22001V   23027.86486456  .00000505  00000-0  49785-4 0  9990,2 50822  53.2141 232.5247 0001004  57.8504 302.2586 15.08834182 58788,6917.898,95.438,540.4580000000001,539.069,0.0
50822.0,STARLINK-3343,PAYLOAD,2023-01-28 14:14:38,15.08843267,0.0001228,53.2151,229.2546,79.7083,280.4048,3.7314e-05,3.06e-06,0.0,0 STARLINK-3343,1 50822U 22001V   23028.59349954  .00000306  00000-0  37314-4 0  9996,2 50822  53.2151 229.2546 0001228  79.7083 280.4048 15.08843267 58893,6917.87,95.437,540.585,538.886,0.0
50822.0,STARLINK-3343,PAYLOAD,2023-01-28 19:00:47,15.08845867,0.0001213,53.215,228.3625,81.1111,279.0019,6.3888e-05,7.29e-06,0.0,0 STARLINK-3343,1 50822U 22001V   23028.79221677  .00000729  00000-0  63888-4 0  9993,2 50822  53.2150 228.3625 0001213  81.1111 279.0019 15.08845867 60177,6917.862,95.437,540.567,538.888,0.0
50822.0,STARLINK-3343,PAYLOAD,2023-01-28 22:11:33,15.08846197,0.0001215,53.215,227.7677,81.2906,278.8223,6.9185e-05,8.14e-06,0.0,0 STARLINK-3343,1 50822U 22001V   23028.92469629  .00000814  00000-0  69185-4 0  9990,2 50822  53.2150 227.7677 0001215  81.2906 278.8223 15.08846197 58945,6917.861,95.437,540.567,538.886,0.0
50822.0,STARLINK-3343,PAYLOAD,2023-01-29 17:16:11,15.08836229,0.0001181,53.215,224.199,87.6058,272.507,0.00010157,1.329e-05,0.0,0 STARLINK-3343,1 50822U 22001V   23029.71958225  .00001329  00000-0  10157-3 0  9999,2 50822  53.2150 224.1990 0001181  87.6058 272.5070 15.08836229 60314,6917.892,95.438,540.574,538.94,0.0
50822.0,STARLINK-3343,PAYLOAD,2023-01-29 22:02:21,15.08837826,0.0001185,53.215,223.3068,86.697,273.4158,0.00010838,1.437e-05,0.0,0 STARLINK-3343,1 50822U 22001V   23029.91830138  .00001437  00000-0  10838-3 0  9999,2 50822  53.2150 223.3068 0001185  86.6970 273.4158 15.08837826 59091,6917.887,95.438,540.572,538.932,0.0
50822.0,STARLINK-3343,PAYLOAD,2023-01-30 05:59:16,15.08838833,0.0001182,53.2146,221.8199,87.1521,272.9606,7.6884e-05,9.36e-06,0.0,0 STARLINK-3343,1 50822U 22001V   23030.24950188  .00000936  00000-0  76884-4 0  9992,2 50822  53.2146 221.8199 0001182  87.1521 272.9606 15.08838833 59146,6917.884,95.438,540.567,538.931,0.0
50822.0,STARLINK-3343,PAYLOAD,2023-01-30 18:42:22,15.08840337,0.0001201,53.2148,219.4405,87.8196,272.2933,2.2346e-05,6.8e-07,0.0,0 STARLINK-3343,1 50822U 22001V   23030.77942232  .00000068  00000-0  22346-4 0  9991,2 50822  53.2148 219.4405 0001201  87.8196 272.2933 15.08840337 60474,6917.879,95.438,540.575,538.914,0.0
50822.0,STARLINK-3343,PAYLOAD,2023-01-31 12:11:36,15.08839435,0.0001265,53.2153,216.1692,88.3168,271.7969,8.0703e-05,9.97e-06,0.0,0 STARLINK-3343,1 50822U 22001V   23031.50806129  .00000997  00000-0  80703-4 0  9999,2 50822  53.2153 216.1692 0001265  88.3168 271.7969 15.08839435 59330,6917.882,95.438,540.622,538.872,0.0
50822.0,STARLINK-3343,PAYLOAD,2023-01-31 18:33:08,15.08842899,0.0001234,53.2149,214.9799,88.6953,271.4181,0.00010763,1.426e-05,0.0,0 STARLINK-3343,1 50822U 22001V   23031.77301807  .00001426  00000-0  10763-3 0  9997,2 50822  53.2149 214.9799 0001234  88.6953 271.4181 15.08842899 59375,6917.872,95.437,540.59,538.883,0.0
50822.0,STARLINK-3343,PAYLOAD,2023-02-01 12:02:23,15.08838856,0.0001314,53.2133,211.7093,86.4524,273.6618,7.0359e-05,8.32e-06,0.0,0 STARLINK-3343,1 50822U 22001V   23032.50166097  .00000832  00000-0  70359-4 0  9997,2 50822  53.2133 211.7093 0001314  86.4524 273.6618 15.08838856 60738,6917.884,95.438,540.658,538.84,0.0
50822.0,STARLINK-3343,PAYLOAD,2023-02-02 11:53:10,15.08837698,0.0001307,53.2134,207.2478,92.3871,267.7271,-2.3699e-06,-3.26e-06,0.0,0 STARLINK-3343,1 50822U 22001V   23033.49526395 -.00000326  00000-0 -23699-5 0  9993,2 50822  53.2134 207.2478 0001307  92.3871 267.7271 15.08837698 59638,6917.887,95.438,540.657,538.848,0.0
50822.0,STARLINK-3343,PAYLOAD,2023-02-03 03:47:02,15.08837141,0.0001318,53.2133,204.2747,90.7718,269.3425,1.0701e-05,-1.18e-06,0.0,0 STARLINK-3343,1 50822U 22001V   23034.15766465 -.00000118  00000-0  10701-4 0  9998,2 50822  53.2133 204.2747 0001318  90.7718 269.3425 15.08837141 60989,6917.889,95.438,540.666,538.842,0.0
50822.0,STARLINK-3343,PAYLOAD,2023-02-03 11:43:58,15.08834289,0.000111,53.2138,202.788,89.3995,270.7125,3.2884e-05,2.36e-06,0.0,0 STARLINK-3343,1 50822U 22001V   23034.48886621  .00000236  00000-0  32884-4 0  9997,2 50822  53.2138 202.7880 0001110  89.3995 270.7125 15.08834289 59785,6917.898,95.438,540.531,538.995,0.0
50822.0,STARLINK-3343,PAYLOAD,2023-02-04 11:34:45,15.08836902,0.0001085,53.2151,198.3275,98.1584,261.9531,7.168e-05,8.53e-06,0.0,0 STARLINK-3343,1 50822U 22001V   23035.48246531  .00000853  00000-0  71680-4 0  9990,2 50822  53.2151 198.3275 0001085  98.1584 261.9531 15.08836902 61185,6917.89,95.438,540.505,539.004,0.0
50822.0,STARLINK-3343,PAYLOAD,2023-02-04 19:31:40,15.08842936,0.000106,53.2158,196.8405,98.9109,261.2003,0.00011173,1.491e-05,0.0,0 STARLINK-3343,1 50822U 22001V   23035.81366060  .00001491  00000-0  11173-3 0  9996,2 50822  53.2158 196.8405 0001060  98.9109 261.2003 15.08842936 59980,6917.871,95.437,540.47,539.003,0.0
50822.0,STARLINK-3343,PAYLOAD,2023-02-05 11:25:32,15.08831547,0.0001205,53.2176,193.8688,98.9859,261.127,-4.8227e-06,-3.65e-06,0.0,0 STARLINK-3343,1 50822U 22001V   23036.47607296 -.00000365  00000-0 -48227-5 0  9991,2 50822  53.2176 193.8688 0001205  98.9859 261.1270 15.08831547 61336,6917.906,95.438,540.605,538.938,0.0
50822.0,STARLINK-3343,PAYLOAD,2023-02-05 19:22:28,15.0883725,0.000114,53.2158,192.3799,89.6349,270.4774,1.1806e-05,-1e-06,0.0,0 STARLINK-3343,1 50822U 22001V   23036.80726922 -.00000100  00000-0  11806-4 0  9994,2 50822  53.2158 192.3799 0001140  89.6349 270.4774 15.08837250 60138,6917.889,95.438,540.542,538.965,0.0
50822.0,STARLINK-3343,PAYLOAD,2023-02-06 03:19:23,15.08837292,0.0001152,53.2161,190.8933,91.8063,268.3061,4.4447e-05,4.2e-06,0.0,0 STARLINK-3343,1 50822U 22001V   23037.13846888  .00000420  00000-0  44447-4 0  9996,2 50822  53.2161 190.8933 0001152  91.8063 268.3061 15.08837292 61431,6917.889,95.438,540.551,538.957,0.0
50822.0,STARLINK-3343,PAYLOAD,2023-02-06 12:51:42,15.08843042,0.0001123,53.2162,189.1099,95.0284,265.0836,7.5739e-05,9.18e-06,0.0,0 STARLINK-3343,1 50822U 22001V   23037.53590557  .00000918  00000-0  75739-4 0  9999,2 50822  53.2162 189.1099 0001123  95.0284 265.0836 15.08843042 60247,6917.871,95.437,540.513,538.959,0.0
50822.0,STARLINK-3343,PAYLOAD,2023-02-06 17:37:51,15.08851401,0.0001099,53.2156,188.2171,91.4238,268.688,0.00010765,1.426e-05,0.0,0 STARLINK-3343,1 50822U 22001V   23037.73461992  .00001426  00000-0  10765-3 0  9993,2 50822  53.2156 188.2171 0001099  91.4238 268.6880 15.08851401 61520,6917.846,95.437,540.471,538.95,0.0
50822.0,STARLINK-3343,PAYLOAD,2023-02-06 19:13:14,15.08854642,0.0001149,53.216,187.9202,91.7474,268.3649,0.00014373,2.001e-05,0.0,0 STARLINK-3343,1 50822U 22001V   23037.80085741  .00002001  00000-0  14373-3 0  9994,2 50822  53.2160 187.9202 0001149  91.7474 268.3649 15.08854642 60289,6917.836,95.437,540.495,538.906,0.0
50822.0,STARLINK-3343,PAYLOAD,2023-02-07 14:17:52,15.08840308,0.0001227,53.2152,184.3513,89.3454,270.7678,0.00015082,2.113e-05,0.0,0 STARLINK-3343,1 50822U 22001V   23038.59574584  .00002113  00000-0  15082-3 0  9991,2 50822  53.2152 184.3513 0001227  89.3454 270.7678 15.08840308 60401,6917.879,95.438,540.593,538.896,0.0
50822.0,STARLINK-3343,PAYLOAD,2023-02-07 15:53:15,15.08844148,0.0001317,53.2151,184.0533,77.0007,283.1132,0.00015955,2.253e-05,0.0,0 STARLINK-3343,1 50822U 22001V   23038.66198457  .00002253  00000-0  15955-3 0  9994,2 50822  53.2151 184.0533 0001317  77.0007 283.1132 15.08844148 61665,6917.868,95.437,540.644,538.822,0.0
